[{"OBJECT_NAME":"SITRO-AIS 20","OBJECT_ID":"2024-199Z","EPOCH":"2026-03-09T22:53:15.769536","MEAN_MOTION":14.97385198,"ECCENTRICITY":0.00069441,"INCLINATION":97.3309,"RA_OF_ASC_NODE":274.6556,"ARG_OF_PERICENTER":50.5148,"MEAN_ANOMALY":309.6689,"EPHEMERIS_TYPE":0,"CLASSIFICATION_TYPE":"U","NORAD_CAT_ID":61758,"ELEMENT_SET_NO":999,"REV_AT_EPOCH":12028,"BSTAR":0.00032349417,"MEAN_MOTION_DOT":3.708e-5,"MEAN_MOTION_DDOT":0},{"OBJECT_NAME":"STARLINK-34468","OBJECT_ID":"2025-129N","EPOCH":"2026-03-09T10:22:07.264992","MEAN_MOTION":14.98335708,"ECCENTRICITY":0.00034178,"INCLINATION":70.0009,"RA_OF_ASC_NODE":75.3087,"ARG_OF_PERICENTER":270.1847,"MEAN_ANOMALY":89.8921,"EPHEMERIS_TYPE":0,"CLASSIFICATION_TYPE":"U","NORAD_CAT_ID":64424,"ELEMENT_SET_NO":999,"REV_AT_EPOCH":4124,"BSTAR":0.0002237769,"MEAN_MOTION_DOT":2.578e-5,"MEAN_MOTION_DDOT":0}]
